CCSDS_OMM_VERS = 2.0
CREATION_DATE  = 
ORIGINATOR     = 

OBJECT_NAME    = SL-14 R/B
OBJECT_ID      = 1991-042B
CENTER_NAME    = EARTH
REF_FRAME      = TEME
TIME_SYSTEM    = UTC
MEAN_ELEMENT_THEORY = SGP/SGP4

EPOCH          = 2026-02-19T23:57:37.192032
MEAN_MOTION    = 14.81810396
ECCENTRICITY   = .00157383
INCLINATION    = 82.4896
RA_OF_ASC_NODE = 236.7747
ARG_OF_PERICENTER = 302.0814
MEAN_ANOMALY   = 57.8871

EPHEMERIS_TYPE = 0
CLASSIFICATION_TYPE = U
NORAD_CAT_ID   = 21423
ELEMENT_SET_NO = 999
REV_AT_EPOCH   = 85045
BSTAR          = .45213798E-4
MEAN_MOTION_DOT = .381E-5
MEAN_MOTION_DDOT = 0

CCSDS_OMM_VERS = 2.0
CREATION_DATE  = 
ORIGINATOR     = 

OBJECT_NAME    = ERS-1
OBJECT_ID      = 1991-050A
CENTER_NAME    = EARTH
REF_FRAME      = TEME
TIME_SYSTEM    = UTC
MEAN_ELEMENT_THEORY = SGP/SGP4

EPOCH          = 2026-02-20T00:59:41.385408
MEAN_MOTION    = 14.39434197
ECCENTRICITY   = .00309234
INCLINATION    = 98.7893
RA_OF_ASC_NODE = 68.8322
ARG_OF_PERICENTER = 254.1244
MEAN_ANOMALY   = 105.6533

EPHEMERIS_TYPE = 0
CLASSIFICATION_TYPE = U
NORAD_CAT_ID   = 21574
ELEMENT_SET_NO = 999
REV_AT_EPOCH   = 81319
BSTAR          = .96435231E-4
MEAN_MOTION_DOT = .255E-5
MEAN_MOTION_DDOT = 0

CCSDS_OMM_VERS = 2.0
CREATION_DATE  = 
ORIGINATOR     = 

OBJECT_NAME    = ARIANE 40 R/B
OBJECT_ID      = 1991-050F
CENTER_NAME    = EARTH
REF_FRAME      = TEME
TIME_SYSTEM    = UTC
MEAN_ELEMENT_THEORY = SGP/SGP4

EPOCH          = 2026-02-20T03:13:30.091584
MEAN_MOTION    = 14.42879810
ECCENTRICITY   = .00042446
INCLINATION    = 98.2052
RA_OF_ASC_NODE = 104.0265
ARG_OF_PERICENTER = 119.6205
MEAN_ANOMALY   = 240.5408

EPHEMERIS_TYPE = 0
CLASSIFICATION_TYPE = U
NORAD_CAT_ID   = 21610
ELEMENT_SET_NO = 999
REV_AT_EPOCH   = 81646
BSTAR          = .86724654E-4
MEAN_MOTION_DOT = .248E-5
MEAN_MOTION_DDOT = 0

CCSDS_OMM_VERS = 2.0
CREATION_DATE  = 
ORIGINATOR     = 

OBJECT_NAME    = INTERCOSMOS 25
OBJECT_ID      = 1991-086A
CENTER_NAME    = EARTH
REF_FRAME      = TEME
TIME_SYSTEM    = UTC
MEAN_ELEMENT_THEORY = SGP/SGP4

EPOCH          = 2026-02-20T03:43:23.352960
MEAN_MOTION    = 12.11947016
ECCENTRICITY   = .14870059
INCLINATION    = 82.6080
RA_OF_ASC_NODE = 320.6043
ARG_OF_PERICENTER = 154.7041
MEAN_ANOMALY   = 213.5120

EPHEMERIS_TYPE = 0
CLASSIFICATION_TYPE = U
NORAD_CAT_ID   = 21819
ELEMENT_SET_NO = 999
REV_AT_EPOCH   = 49456
BSTAR          = .14504849E-3
MEAN_MOTION_DOT = .768E-5
MEAN_MOTION_DDOT = 0

CCSDS_OMM_VERS = 2.0
CREATION_DATE  = 
ORIGINATOR     = 

OBJECT_NAME    = SL-8 R/B
OBJECT_ID      = 1992-008B
CENTER_NAME    = EARTH
REF_FRAME      = TEME
TIME_SYSTEM    = UTC
MEAN_ELEMENT_THEORY = SGP/SGP4

EPOCH          = 2026-02-20T03:13:55.761888
MEAN_MOTION    = 13.75970058
ECCENTRICITY   = .00345644
INCLINATION    = 82.9245
RA_OF_ASC_NODE = 280.8395
ARG_OF_PERICENTER = 181.6128
MEAN_ANOMALY   = 290.9168

EPHEMERIS_TYPE = 0
CLASSIFICATION_TYPE = U
NORAD_CAT_ID   = 21876
ELEMENT_SET_NO = 999
REV_AT_EPOCH   = 70700
BSTAR          = .13111682E-4
MEAN_MOTION_DOT = .28E-6
MEAN_MOTION_DDOT = 0

CCSDS_OMM_VERS = 2.0
CREATION_DATE  = 
ORIGINATOR     = 

OBJECT_NAME    = SL-8 R/B
OBJECT_ID      = 1992-020B
CENTER_NAME    = EARTH
REF_FRAME      = TEME
TIME_SYSTEM    = UTC
MEAN_ELEMENT_THEORY = SGP/SGP4

EPOCH          = 2026-02-20T07:13:17.902560
MEAN_MOTION    = 13.75547147
ECCENTRICITY   = .00285014
INCLINATION    = 82.9341
RA_OF_ASC_NODE = 166.6678
ARG_OF_PERICENTER = 348.9171
MEAN_ANOMALY   = 39.3917

EPHEMERIS_TYPE = 0
CLASSIFICATION_TYPE = U
NORAD_CAT_ID   = 21938
ELEMENT_SET_NO = 999
REV_AT_EPOCH   = 69874
BSTAR          = .84297479E-4
MEAN_MOTION_DOT = .96E-6
MEAN_MOTION_DDOT = 0

CCSDS_OMM_VERS = 2.0
CREATION_DATE  = 
ORIGINATOR     = 

OBJECT_NAME    = USA 81
OBJECT_ID      = 1992-023A
CENTER_NAME    = EARTH
REF_FRAME      = TEME
TIME_SYSTEM    = UTC
MEAN_ELEMENT_THEORY = SGP/SGP4

EPOCH          = 2026-02-20T04:39:50.481792
MEAN_MOTION    = 14.32361456
ECCENTRICITY   = .00027421
INCLINATION    = 85.0114
RA_OF_ASC_NODE = 141.5307
ARG_OF_PERICENTER = 93.5954
MEAN_ANOMALY   = 266.5552

EPHEMERIS_TYPE = 0
CLASSIFICATION_TYPE = U
NORAD_CAT_ID   = 21949
ELEMENT_SET_NO = 999
REV_AT_EPOCH   = 9228
BSTAR          = .6337835E-4
MEAN_MOTION_DOT = .191E-5
MEAN_MOTION_DDOT = 0

CCSDS_OMM_VERS = 2.0
CREATION_DATE  = 
ORIGINATOR     = 

OBJECT_NAME    = COSMOS 2219
OBJECT_ID      = 1992-076A
CENTER_NAME    = EARTH
REF_FRAME      = TEME
TIME_SYSTEM    = UTC
MEAN_ELEMENT_THEORY = SGP/SGP4

EPOCH          = 2026-02-20T04:33:46.086336
MEAN_MOTION    = 14.14080253
ECCENTRICITY   = .0019835
INCLINATION    = 71.0588
RA_OF_ASC_NODE = 54.6510
ARG_OF_PERICENTER = 230.4820
MEAN_ANOMALY   = 129.4550

EPHEMERIS_TYPE = 0
CLASSIFICATION_TYPE = U
NORAD_CAT_ID   = 22219
ELEMENT_SET_NO = 999
REV_AT_EPOCH   = 71590
BSTAR          = .16730365E-3
MEAN_MOTION_DOT = .272E-5
MEAN_MOTION_DDOT = 0

CCSDS_OMM_VERS = 2.0
CREATION_DATE  = 
ORIGINATOR     = 

OBJECT_NAME    = SL-16 R/B
OBJECT_ID      = 1992-076B
CENTER_NAME    = EARTH
REF_FRAME      = TEME
TIME_SYSTEM    = UTC
MEAN_ELEMENT_THEORY = SGP/SGP4

EPOCH          = 2026-02-19T21:57:15.516288
MEAN_MOTION    = 14.16854669
ECCENTRICITY   = .0011117
INCLINATION    = 70.9977
RA_OF_ASC_NODE = 225.8151
ARG_OF_PERICENTER = 128.9964
MEAN_ANOMALY   = 339.7536

EPHEMERIS_TYPE = 0
CLASSIFICATION_TYPE = U
NORAD_CAT_ID   = 22220
ELEMENT_SET_NO = 999
REV_AT_EPOCH   = 71931
BSTAR          = .33949E-5
MEAN_MOTION_DOT = -.41E-6
MEAN_MOTION_DDOT = 0

CCSDS_OMM_VERS = 2.0
CREATION_DATE  = 
ORIGINATOR     = 

OBJECT_NAME    = COSMOS 2221
OBJECT_ID      = 1992-080A
CENTER_NAME    = EARTH
REF_FRAME      = TEME
TIME_SYSTEM    = UTC
MEAN_ELEMENT_THEORY = SGP/SGP4

EPOCH          = 2026-02-20T04:21:49.667904
MEAN_MOTION    = 14.96128335
ECCENTRICITY   = .00128668
INCLINATION    = 82.5038
RA_OF_ASC_NODE = 295.8511
ARG_OF_PERICENTER = 250.5123
MEAN_ANOMALY   = 109.4709

EPHEMERIS_TYPE = 0
CLASSIFICATION_TYPE = U
NORAD_CAT_ID   = 22236
ELEMENT_SET_NO = 999
REV_AT_EPOCH   = 77817
BSTAR          = .13374942E-3
MEAN_MOTION_DOT = .1532E-4
MEAN_MOTION_DDOT = 0

CCSDS_OMM_VERS = 2.0
CREATION_DATE  = 
ORIGINATOR     = 

OBJECT_NAME    = SL-16 R/B
OBJECT_ID      = 1992-093B
CENTER_NAME    = EARTH
REF_FRAME      = TEME
TIME_SYSTEM    = UTC
MEAN_ELEMENT_THEORY = SGP/SGP4

EPOCH          = 2026-02-20T05:07:10.561152
MEAN_MOTION    = 14.15446192
ECCENTRICITY   = .00056474
INCLINATION    = 71.0216
RA_OF_ASC_NODE = 40.9528
ARG_OF_PERICENTER = 312.4293
MEAN_ANOMALY   = 47.6352

EPHEMERIS_TYPE = 0
CLASSIFICATION_TYPE = U
NORAD_CAT_ID   = 22285
ELEMENT_SET_NO = 999
REV_AT_EPOCH   = 71068
BSTAR          = .17484632E-3
MEAN_MOTION_DOT = .294E-5
MEAN_MOTION_DDOT = 0

CCSDS_OMM_VERS = 2.0
CREATION_DATE  = 
ORIGINATOR     = 

OBJECT_NAME    = COSMOS 2228
OBJECT_ID      = 1992-094A
CENTER_NAME    = EARTH
REF_FRAME      = TEME
TIME_SYSTEM    = UTC
MEAN_ELEMENT_THEORY = SGP/SGP4

EPOCH          = 2026-02-20T05:01:55.726464
MEAN_MOTION    = 14.97099924
ECCENTRICITY   = .00181573
INCLINATION    = 82.5146
RA_OF_ASC_NODE = 254.0502
ARG_OF_PERICENTER = 5.4098
MEAN_ANOMALY   = 354.7316

EPHEMERIS_TYPE = 0
CLASSIFICATION_TYPE = U
NORAD_CAT_ID   = 22286
ELEMENT_SET_NO = 999
REV_AT_EPOCH   = 77344
BSTAR          = .1362698E-3
MEAN_MOTION_DOT = .1603E-4
MEAN_MOTION_DDOT = 0

